[{"OBJECT_NAME":"TIANQI-35","OBJECT_ID":"2024-245C","EPOCH":"2026-03-09T22:48:29.661984","MEAN_MOTION":13.99155463,"ECCENTRICITY":0.00115717,"INCLINATION":44.9856,"RA_OF_ASC_NODE":43.2512,"ARG_OF_PERICENTER":259.4757,"MEAN_ANOMALY":100.4772,"EPHEMERIS_TYPE":0,"CLASSIFICATION_TYPE":"U","NORAD_CAT_ID":62367,"ELEMENT_SET_NO":999,"REV_AT_EPOCH":6244,"BSTAR":0.00014384767,"MEAN_MOTION_DOT":8.1e-7,"MEAN_MOTION_DDOT":0},{"OBJECT_NAME":"FENGYUN 1C DEB","OBJECT_ID":"1999-025BCS","EPOCH":"2026-03-09T23:51:02.128032","MEAN_MOTION":14.09873309,"ECCENTRICITY":0.01646958,"INCLINATION":97.5602,"RA_OF_ASC_NODE":88.814,"ARG_OF_PERICENTER":170.4246,"MEAN_ANOMALY":220.0872,"EPHEMERIS_TYPE":0,"CLASSIFICATION_TYPE":"U","NORAD_CAT_ID":31000,"ELEMENT_SET_NO":999,"REV_AT_EPOCH":71186,"BSTAR":0.00060429269,"MEAN_MOTION_DOT":1.174e-5,"MEAN_MOTION_DDOT":0}]
